#cP2019  6 29  0  0  0.00000000      96 TRACK IGb14 FIT GRGS
## 2059 518400.00000000   900.00000000 58663 0.0000000000000
+   78   E01E02E03E04E05E07E08E09E11E12E13E14E15E18E19E21E24
+        E25E26E27E30E31E33E36R01R02R03R04R05R07R08R09R10R11
+        R12R13R14R15R16R17R18R19R20R21R22R23R24G01G02G03G05
+        G06G07G08G09G10G11G12G13G14G15G16G17G19G20G21G22G23
+        G24G25G26G27G28G29G30G31G32G18  0  0  0  0  0  0  0
++         5  5  4  5  4  5  4  5  7  5  5  5  6  5  4  5  6
++         5  5  5  5  6  5  6  6  5  5  5  6  6  5  5  6  5
++         6  6  5  6  6  5  5  6  6  5  5  5  6  5  5  4  5
++         5  4  5  5  5  5  5  4  4  5  5  4  4  5  5  5  5
++         5  5  4  5  5  5  5  5  4  5  0  0  0  0  0  0  0
%c M  cc GPS ccc cccc cccc cccc cccc ccccc ccccc ccccc ccccc
%c cc cc ccc ccc cccc cccc cccc cccc ccccc ccccc ccccc ccccc
%f  0.0000000  0.000000000  0.00000000000  0.000000000000000
%f  0.0000000  0.000000000  0.00000000000  0.000000000000000
%i    0    0    0    0      0      0      0      0         0
%i    0    0    0    0      0      0      0      0         0
/* CNES/CLS/GRGS - TOULOUSE,FRANCE - Contact : igs-ac@cls.fr
/* PCV: OL/AL:FES2012  NONE     NN ORB:CoN CLK:CoN          
/* CCCCCCCCCCCCCCCCCCCCCCCCCCCCCCCCCCCCCCCCCCCCCCCCCCCCCCCCC
/* CCCCCCCCCCCCCCCCCCCCCCCCCCCCCCCCCCCCCCCCCCCCCCCCCCCCCCCCC
*  2019  6 29 23  0  0.00000000
PE01  15942.930536  -8773.336289 -23348.240944   -636.747369
PE02 -15882.840530   8820.921688  23367.190570     67.082098
PE03 -12606.910490  19646.829331 -18200.065350   -182.871781
PE04    798.296441 -29531.736699   1845.318407   -313.174692
PE05 -17143.510180  -1868.440307 -24047.643918   -470.712917
PE07  11639.411490  22166.154113  15814.665097   -216.948313
PE08   -455.550877  29554.409325  -1714.893232   6331.817861
PE09 -11719.262595 -22039.012126 -15883.196182   6393.676511
PE11 -13090.105657 -10843.573309  24221.331567   5665.763778
PE12   7598.852222 -20361.218967  20104.179423   6322.139887
PE13  12997.625401  10800.085279 -24302.186569    389.263914
PE14  13516.193982  17657.115049 -23274.369198   -624.293177
PE15  -7147.208165  20264.821131 -20352.775237    905.006118
PE18  -5746.872766 -17973.138807  14915.616438   -720.354457
PE19  13337.376966 -17865.870182  19482.632721     -5.461064
PE21  26799.968046   6730.025005 -10632.559945   -541.630638
PE24 -21851.730867 -18288.031477  -8042.006903   6002.586692
PE25 -26799.039934  -6769.521007  10579.224259   1757.763522
PE26  25687.102962  -4772.417383 -13913.538256   4396.430014
PE27  21785.142273  18242.429101   8310.905292    439.059903
PE30   4104.907347  19136.641190  22197.422123   4750.156568
PE31  -3994.964722 -19012.644335 -22322.736916   -466.055622
PE33  23162.860652 -17887.422563   4473.436932   -469.871602
PE36 -25578.318314   5016.766542  14020.778823    693.567752
PR01  -9876.960719 -21943.332900  -8428.569280     46.045977
PR02 -11816.564021  -4348.122794 -22147.815972    375.958887
PR03  -6429.938723  14256.739847 -20090.977909     -2.490646
PR04   3082.637061  24621.693089  -5856.930899    311.983560
PR05  10228.345169  20722.901692  10794.187212     30.983191
PR07   6221.284704 -14767.737670  19899.256729    -22.608593
PR08  -2583.554986 -24492.042246   6716.459632     16.986450
PR09  24103.994814   3209.420876  -7812.481662     77.614015
PR10  15448.925711  -4808.015181 -19770.468414     53.295599
PR11  -3481.936381 -12153.768330 -22131.027953    -71.096200
PR12 -19186.597807 -11614.468998 -12138.433932     39.256933
PR13 -24482.669330  -4109.877059   5822.245073    -25.418785
PR14 -15231.519372   5287.569754  19771.054621     40.438928
PR15   2616.803180  11849.000855  22458.480170    102.829598
PR16  19350.053711  11354.096146  12011.284862      8.005299
PR17 -19036.988845  16936.555510   1541.486074    239.722483
PR18  -9809.651210  18336.109340 -14723.040612     -1.479907
PR19   4320.694537  10016.782655 -23062.815106    -39.136852
PR20  17756.571212  -5356.312741 -17534.765967   -382.790635
PR21  18838.454315 -17158.578021   -860.521870    -56.906170
PR22   7844.828776 -17608.135350  16774.890781    -26.209660
PR23  -9017.189955  -5839.859237  23122.109815    237.552397
PR24 -18342.797809   7103.115688  16200.058634   -182.089960
PG01   4585.886956  14315.282342 -22101.162719    -54.096224
PG02  17253.640068 -15006.980070  13992.424775   -248.943421
PG03  11211.552395  22283.957117  -9296.067371    183.558115
PG05   6883.956126 -14555.370036  20968.004925      0.302236
PG06  25766.326268  -6380.586260   1386.215807    163.786866
PG07  19252.731895   8382.491959  16811.659461    -54.483763
PG08  -4488.664386  25588.002853  -4943.861584   -149.325326
PG09  11101.886159  12946.749165  20319.653587    381.325754
PG10 -20470.146605  -6450.704104 -15711.862111      0.154198
PG11    799.395311  18560.062202 -19597.286089   -572.965013
PG12  -8035.948043 -22770.904838 -11463.776880    228.503205
PG13  12927.727812 -23000.420218   2686.751299    -56.837930
PG14 -17018.741582  13101.284486 -15178.915645    -73.806719
PG15   1372.210396 -25727.276571  -5809.324236   -303.989673
PG16  -7751.954472  13377.292599  21337.362767    -52.146004
PG17  16216.527216  -4915.428491 -20023.581516     80.195505
PG19  17397.964916 -11415.320483 -16846.448493   -300.356610
PG20 -22427.769944 -12471.550566  -7263.962048    525.681987
PG21 -22450.451720  -4417.438905  14140.411960   -163.817891
PG22   5663.017452  21071.980822 -14973.429068   -724.282240
PG23   2995.972386  22840.873013  13199.839924   -179.516264
PG24  -1633.736366 -15796.309909 -21424.139019    -68.140419
PG25 -17746.520077 -19944.660642     36.816921   -769.735807
PG26 -15539.594667   5241.892388  20903.034095    239.265882
PG27 -12145.742054  22399.004224   6807.777439   -171.347443
PG28  19264.733622   8625.992108 -15457.193889    767.014072
PG29  -7017.256564 -16796.434312  19301.113799    163.889870
PG30  25428.363936   1630.053581   7875.219562   -133.538088
PG31 -25751.552917   6771.951644   3057.048784     27.666548
PG32 -16581.080178   6058.463393 -19743.741418    -22.853321
PG18  -5307.060122  16465.153183 -20621.035615     65.977352
EOF
